NORAD_CAT_ID,OBJECT_NAME,OBJECT_TYPE,EPOCH,MEAN_MOTION,ECCENTRICITY,INCLINATION,RA_OF_ASC_NODE,ARG_OF_PERICENTER,MEAN_ANOMALY,BSTAR,MEAN_MOTION_DOT,MEAN_MOTION_DDOT,TLE_LINE0,TLE_LINE1,TLE_LINE2,SEMIMAJOR_AXIS,PERIOD,APOGEE,PERIGEE,DECAYED
55430.0,STARLINK-5642,PAYLOAD,2023-02-07 16:00:01,15.70772315,0.000331,70.0077,70.093,273.5799,295.3704,-0.0092931,-0.0104267,0.0,0 STARLINK-5642,1 55430U 23014AR  23038.66668981 -.01042670  00000-0 -92931-2 0  9991,2 55430  70.0077  70.0930 0003310 273.5799 295.3704 15.70772315  1300,6734.826,91.675,358.92,354.461,0.0
55430.0,STARLINK-5642,PAYLOAD,2023-02-07 22:00:00,15.69957667,0.0003506,70.0077,69.3898,266.0812,275.8302,-0.00033566,-0.00040436,0.0,0 STARLINK-5642,1 55430U 23014AR  23038.91667824 -.00040436  00000-0 -33566-3 0  9991,2 55430  70.0077  69.3898 0003506 266.0812 275.8302 15.69957667  1304,6737.155,91.722,361.382,356.658,0.0
55430.0,STARLINK-5642,PAYLOAD,2023-02-08 14:00:01,15.69921708,0.0003334,70.0064,67.5156,275.7815,72.8264,-1.5766e-05,-2.108e-05,0.0,0 STARLINK-5642,1 55430U 23014AR  23039.58334491 -.00002108  00000-0 -15766-4 0  9993,2 55430  70.0064  67.5156 0003334 275.7815  72.8264 15.69921708  1440,6737.258,91.724,361.369,356.877,0.0
55430.0,STARLINK-5642,PAYLOAD,2023-02-08 22:00:00,15.69878402,0.0003244,70.0055,66.5791,261.0998,170.839,0.00092082,0.0011178,0.0,0 STARLINK-5642,1 55430U 23014AR  23039.91667824  .00111780  00000-0  92082-3 0  9999,2 55430  70.0055  66.5791 0003244 261.0998 170.8390 15.69878402  1300,6737.382,91.727,361.432,357.061,0.0
55430.0,STARLINK-5642,PAYLOAD,2023-02-09 12:00:00,15.69888055,0.0003221,70.0027,64.9394,271.7565,216.0394,0.00044373,0.00053401,0.0,0 STARLINK-5642,1 55430U 23014AR  23040.50001157  .00053401  00000-0  44373-3 0  9992,2 55430  70.0027  64.9394 0003221 271.7565 216.0394 15.69888055  1305,6737.354,91.726,361.389,357.049,0.0
55430.0,STARLINK-5642,PAYLOAD,2023-02-09 20:00:01,15.69893544,0.0003235,70.0014,64.0022,265.2966,305.824,0.00045286,0.00054524,0.0,0 STARLINK-5642,1 55430U 23014AR  23040.83334491  .00054524  00000-0  45286-3 0  9999,2 55430  70.0014  64.0022 0003235 265.2966 305.8240 15.69893544  1641,6737.339,91.726,361.383,357.024,0.0
55430.0,STARLINK-5642,PAYLOAD,2023-02-09 22:00:00,15.69877131,0.0003269,70.0011,63.768,263.3236,58.6274,0.00090827,0.00110228,0.0,0 STARLINK-5642,1 55430U 23014AR  23040.91667824  .00110228  00000-0  90827-3 0  9992,2 55430  70.0011  63.7680 0003269 263.3236  58.6274 15.69877131  1307,6737.386,91.727,361.453,357.048,0.0
55430.0,STARLINK-5642,PAYLOAD,2023-02-10 04:00:00,15.69964153,0.000333,70.0008,63.065,266.1163,28.3167,-0.0005002,-0.00060029,0.0,0 STARLINK-5642,1 55430U 23014AR  23041.16667824 -.00060029  00000-0 -50020-3 0  9996,2 55430  70.0008  63.0650 0003330 266.1163  28.3167 15.69964153  1308,6737.137,91.722,361.245,356.758,0.0
55430.0,STARLINK-5642,PAYLOAD,2023-02-10 16:00:00,15.6994007,0.0003317,69.9997,61.6592,272.6872,326.7695,-0.00062839,-0.00075148,0.0,0 STARLINK-5642,1 55430U 23014AR  23041.66667824 -.00075148  00000-0 -62839-3 0  9990,2 55430  69.9997  61.6592 0003317 272.6872 326.7695 15.69940070  1779,6737.205,91.723,361.305,356.836,0.0
55430.0,STARLINK-5642,PAYLOAD,2023-02-10 22:00:00,15.69837609,0.0003394,69.9999,60.9565,266.1283,305.8345,0.0013652,0.00166645,0.0,0 STARLINK-5642,1 55430U 23014AR  23041.91667824  .00166645  00000-0  13652-2 0  9997,2 55430  69.9999  60.9565 0003394 266.1283 305.8345 15.69837609  1304,6737.499,91.729,361.65,357.077,0.0
55430.0,STARLINK-5642,PAYLOAD,2023-02-11 00:00:00,15.69889448,0.0003362,70.0,60.7224,265.2848,57.4857,0.00078801,0.00095486,0.0,0 STARLINK-5642,1 55430U 23014AR  23042.00001157  .00095486  00000-0  78801-3 0  9991,2 55430  70.0000  60.7224 0003362 265.2848  57.4857 15.69889448  1825,6737.35,91.726,361.48,356.95,0.0
55430.0,STARLINK-5642,PAYLOAD,2023-02-11 18:30:33,15.69933261,0.0002644,70.0037,58.5551,271.8178,88.2715,0.0002655,0.00031841,0.0,0 STARLINK-5642,1 55430U 23014AR  23042.77121582  .00031841  00000-0  26550-3 0  9999,2 55430  70.0037  58.5551 0002644 271.8178  88.2715 15.69933261  1945,6737.225,91.724,360.871,357.309,0.0
55430.0,STARLINK-5642,PAYLOAD,2023-02-12 22:00:00,15.69856627,0.0003337,69.9998,55.3334,260.0863,91.8902,0.0012196,0.00148644,0.0,0 STARLINK-5642,1 55430U 23014AR  23043.91667824  .00148644  00000-0  12196-2 0  9990,2 55430  69.9998  55.3334 0003337 260.0863  91.8902 15.69856627  2122,6737.444,91.728,361.557,357.061,0.0
55430.0,STARLINK-5642,PAYLOAD,2023-02-13 06:00:00,15.69940871,0.0003387,69.9999,54.3965,263.5307,171.7608,-0.00036554,-0.00043967,0.0,0 STARLINK-5642,1 55430U 23014AR  23044.25001157 -.00043967  00000-0 -36554-3 0  9998,2 55430  69.9999  54.3965 0003387 263.5307 171.7608 15.69940871  2179,6737.203,91.723,361.35,356.786,0.0
55430.0,STARLINK-5642,PAYLOAD,2023-02-13 14:00:01,15.69933385,0.000332,69.9992,53.4592,263.8312,254.7944,-0.00032594,-0.00039236,0.0,0 STARLINK-5642,1 55430U 23014AR  23044.58334491 -.00039236  00000-0 -32594-3 0  9998,2 55430  69.9992  53.4592 0003320 263.8312 254.7944 15.69933385  1305,6737.225,91.724,361.326,356.853,0.0
55430.0,STARLINK-5642,PAYLOAD,2023-02-13 22:00:00,15.69890761,0.0003464,69.9992,52.5218,256.7584,345.2087,0.00077987,0.00094493,0.0,0 STARLINK-5642,1 55430U 23014AR  23044.91667824  .00094493  00000-0  77987-3 0  9993,2 55430  69.9992  52.5218 0003464 256.7584 345.2087 15.69890761  2283,6737.347,91.726,361.545,356.878,0.0
55430.0,STARLINK-5642,PAYLOAD,2023-02-14 00:00:00,15.69936957,0.0003419,69.9994,52.2877,257.5015,95.2851,0.00010418,0.00012339,0.0,0 STARLINK-5642,1 55430U 23014AR  23045.00001157  .00012339  00000-0  10418-3 0  9990,2 55430  69.9994  52.2877 0003419 257.5015  95.2851 15.69936957  2291,6737.214,91.723,361.383,356.776,0.0
55430.0,STARLINK-5642,PAYLOAD,2023-02-14 12:15:53,15.69931906,0.0003384,70.0017,50.8517,259.6613,100.4202,3.1824e-05,3.617e-05,0.0,0 STARLINK-5642,1 55430U 23014AR  23045.51103180  .00003617  00000-0  31824-4 0  9999,2 55430  70.0017  50.8517 0003384 259.6613 100.4202 15.69931906  3315,6737.229,91.724,361.374,356.814,0.0
55430.0,STARLINK-5642,PAYLOAD,2023-02-15 03:33:32,15.69702288,0.0003351,69.999,49.0596,263.1183,96.9631,-0.00055688,-0.00066042,0.0,0 STARLINK-5642,1 55430U 23014AR  23046.14828717 -.00066042  00000-0 -55688-3 0  9995,2 55430  69.9990  49.0596 0003351 263.1183  96.9631 15.69702288  2475,6737.886,91.737,362.009,357.493,0.0
55430.0,STARLINK-5642,PAYLOAD,2023-02-15 08:09:00,15.69494053,0.0003572,69.998,48.5226,255.2575,104.8225,-0.0007909,-0.00092618,0.0,0 STARLINK-5642,1 55430U 23014AR  23046.33959060 -.00092618  00000-0 -79090-3 0  9993,2 55430  69.9980  48.5226 0003572 255.2575 104.8225 15.69494053  2500,6738.482,91.749,362.754,357.94,0.0
55430.0,STARLINK-5642,PAYLOAD,2023-02-15 17:19:57,15.69139629,0.0002978,69.9982,47.449,270.9565,89.1289,-0.0012886,-0.00147598,0.0,0 STARLINK-5642,1 55430U 23014AR  23046.72219214 -.00147598  00000-0 -12886-2 0  9993,2 55430  69.9982  47.4490 0002978 270.9565  89.1289 15.69139629  2561,6739.496,91.77,363.368,359.354,0.0
55430.0,STARLINK-5642,PAYLOAD,2023-02-15 21:55:01,15.69647151,0.0009584,69.9982,46.911,306.7096,53.3218,-0.00013666,-0.00016468,0.0,0 STARLINK-5642,1 55430U 23014AR  23046.91321134 -.00016468  00000-0 -13666-3 0  9998,2 55430  69.9982  46.9110 0009584 306.7096  53.3218 15.69647151  3538,6738.044,91.74,366.366,353.451,0.0
55430.0,STARLINK-5642,PAYLOAD,2023-02-16 02:31:30,15.68210524,0.0003011,69.9982,46.3766,258.7542,101.3315,-0.00278,-0.00300788,0.0,0 STARLINK-5642,1 55430U 23014AR  23047.10521554 -.00300788  00000-0 -27800-2 0  9993,2 55430  69.9982  46.3766 0003011 258.7542 101.3315 15.68210524  2620,6742.158,91.824,366.053,361.993,0.0
55430.0,STARLINK-5642,PAYLOAD,2023-02-17 22:00:00,15.62375217,0.0003472,69.9987,41.3204,269.2067,212.8346,-0.014935,-0.01195373,0.0,0 STARLINK-5642,1 55430U 23014AR  23048.91667824 -.01195373  00000-0 -14935-1 0  9991,2 55430  69.9987  41.3204 0003472 269.2067 212.8346 15.62375217  1308,6758.935,92.167,383.147,378.453,0.0
55430.0,STARLINK-5642,PAYLOAD,2023-02-18 14:00:01,15.60678967,0.0003521,69.9985,39.469,270.3118,358.1956,-0.01674,-0.01248306,0.0,0 STARLINK-5642,1 55430U 23014AR  23049.58334491 -.01248306  00000-0 -16740-1 0  9997,2 55430  69.9985  39.4690 0003521 270.3118 358.1956 15.60678967  3015,6763.832,92.268,388.078,383.315,0.0
55430.0,STARLINK-5642,PAYLOAD,2023-02-19 06:00:00,15.58900218,0.000347,69.9991,37.6227,274.6756,136.199,-0.016328,-0.01147829,0.0,0 STARLINK-5642,1 55430U 23014AR  23050.25001157 -.01147829  00000-0 -16328-1 0  9993,2 55430  69.9991  37.6227 0003470 274.6756 136.1990 15.58900218  3113,6768.976,92.373,393.19,388.492,0.0
55430.0,STARLINK-5642,PAYLOAD,2023-02-19 14:00:01,15.5809789,0.0003401,69.9986,36.701,274.8843,205.6032,-0.018389,-0.01242987,0.0,0 STARLINK-5642,1 55430U 23014AR  23050.58334491 -.01242987  00000-0 -18389-1 0  9999,2 55430  69.9986  36.7010 0003401 274.8843 205.6032 15.58097890  1301,6771.299,92.42,395.467,390.861,0.0
55430.0,STARLINK-5642,PAYLOAD,2023-02-19 22:00:00,15.57236761,0.0003263,69.9989,35.7808,265.7723,283.3064,-0.018548,-0.01216592,0.0,0 STARLINK-5642,1 55430U 23014AR  23050.91667824 -.01216592  00000-0 -18548-1 0  9995,2 55430  69.9989  35.7808 0003263 265.7723 283.3064 15.57236761  3222,6773.795,92.471,397.871,393.45,0.0
55430.0,STARLINK-5642,PAYLOAD,2023-02-20 14:00:01,15.55513699,0.0003322,69.9991,33.9435,269.5193,53.6771,-0.020025,-0.01230143,0.0,0 STARLINK-5642,1 55430U 23014AR  23051.58334491 -.01230143  00000-0 -20025-1 0  9991,2 55430  69.9991  33.9435 0003322 269.5193  53.6771 15.55513699  1306,6778.797,92.574,402.914,398.41,0.0
55430.0,STARLINK-5642,PAYLOAD,2023-02-20 22:00:01,15.54657057,0.0003478,69.9994,33.027,266.5316,122.2318,-0.020378,-0.01214662,0.0,0 STARLINK-5642,1 55430U 23014AR  23051.91668981 -.01214662  00000-0 -20378-1 0  9991,2 55430  69.9994  33.0270 0003478 266.5316 122.2318 15.54657057  3378,6781.287,92.625,405.51,400.793,0.0
